[{"OBJECT_NAME":"HULIANWANG DIGUI-65","OBJECT_ID":"2025-174H","EPOCH":"2026-03-05T07:07:36.098976","MEAN_MOTION":13.24422291,"ECCENTRICITY":0.0001227,"INCLINATION":86.4844,"RA_OF_ASC_NODE":287.0016,"ARG_OF_PERICENTER":87.9474,"MEAN_ANOMALY":272.1801,"EPHEMERIS_TYPE":0,"CLASSIFICATION_TYPE":"U","NORAD_CAT_ID":65171,"ELEMENT_SET_NO":999,"REV_AT_EPOCH":2703,"BSTAR":7.7707058e-5,"MEAN_MOTION_DOT":4.8e-7,"MEAN_MOTION_DDOT":0},{"OBJECT_NAME":"HULIANWANG DIGUI-66","OBJECT_ID":"2025-174J","EPOCH":"2026-03-05T06:56:45.528576","MEAN_MOTION":13.24421953,"ECCENTRICITY":0.00012688,"INCLINATION":86.4879,"RA_OF_ASC_NODE":287.0703,"ARG_OF_PERICENTER":90.1334,"MEAN_ANOMALY":269.9946,"EPHEMERIS_TYPE":0,"CLASSIFICATION_TYPE":"U","NORAD_CAT_ID":65172,"ELEMENT_SET_NO":999,"REV_AT_EPOCH":2703,"BSTAR":8.8648176e-5,"MEAN_MOTION_DOT":5.3e-7,"MEAN_MOTION_DDOT":0},{"OBJECT_NAME":"HULIANWANG DIGUI-67","OBJECT_ID":"2025-174K","EPOCH":"2026-03-05T07:18:33.688512","MEAN_MOTION":13.24421561,"ECCENTRICITY":0.00012617,"INCLINATION":86.4891,"RA_OF_ASC_NODE":287.0988,"ARG_OF_PERICENTER":88.4825,"MEAN_ANOMALY":271.6453,"EPHEMERIS_TYPE":0,"CLASSIFICATION_TYPE":"U","NORAD_CAT_ID":65173,"ELEMENT_SET_NO":999,"REV_AT_EPOCH":2700,"BSTAR":0.00010033908,"MEAN_MOTION_DOT":5.8e-7,"MEAN_MOTION_DDOT":0},{"OBJECT_NAME":"HULIANWANG DIGUI-68","OBJECT_ID":"2025-178A","EPOCH":"2026-03-05T06:02:12.494400","MEAN_MOTION":13.24423836,"ECCENTRICITY":0.00020285,"INCLINATION":86.4941,"RA_OF_ASC_NODE":48.594,"ARG_OF_PERICENTER":80.0076,"MEAN_ANOMALY":280.1287,"EPHEMERIS_TYPE":0,"CLASSIFICATION_TYPE":"U","NORAD_CAT_ID":65228,"ELEMENT_SET_NO":999,"REV_AT_EPOCH":2655,"BSTAR":1.3892215e-5,"MEAN_MOTION_DOT":2.1e-7,"MEAN_MOTION_DDOT":0},{"OBJECT_NAME":"HULIANWANG DIGUI-69","OBJECT_ID":"2025-178B","EPOCH":"2026-03-05T05:51:46.561824","MEAN_MOTION":13.24417711,"ECCENTRICITY":0.00019629,"INCLINATION":86.4961,"RA_OF_ASC_NODE":48.6313,"ARG_OF_PERICENTER":81.3451,"MEAN_ANOMALY":278.7905,"EPHEMERIS_TYPE":0,"CLASSIFICATION_TYPE":"U","NORAD_CAT_ID":65229,"ELEMENT_SET_NO":999,"REV_AT_EPOCH":2655,"BSTAR":2.8107513e-5,"MEAN_MOTION_DOT":2.7e-7,"MEAN_MOTION_DDOT":0},{"OBJECT_NAME":"HULIANWANG DIGUI-70","OBJECT_ID":"2025-178C","EPOCH":"2026-03-05T05:40:50.057472","MEAN_MOTION":13.24418629,"ECCENTRICITY":0.00020706,"INCLINATION":86.49,"RA_OF_ASC_NODE":48.5028,"ARG_OF_PERICENTER":79.9582,"MEAN_ANOMALY":280.1786,"EPHEMERIS_TYPE":0,"CLASSIFICATION_TYPE":"U","NORAD_CAT_ID":65230,"ELEMENT_SET_NO":999,"REV_AT_EPOCH":2655,"BSTAR":1.3459642e-5,"MEAN_MOTION_DOT":2.0e-7,"MEAN_MOTION_DDOT":0},{"OBJECT_NAME":"HULIANWANG DIGUI-71","OBJECT_ID":"2025-178D","EPOCH":"2026-03-05T07:18:42.501312","MEAN_MOTION":13.24419539,"ECCENTRICITY":0.00020115,"INCLINATION":86.4959,"RA_OF_ASC_NODE":48.594,"ARG_OF_PERICENTER":81.1344,"MEAN_ANOMALY":279.0018,"EPHEMERIS_TYPE":0,"CLASSIFICATION_TYPE":"U","NORAD_CAT_ID":65231,"ELEMENT_SET_NO":999,"REV_AT_EPOCH":2656,"BSTAR":4.2010683e-5,"MEAN_MOTION_DOT":3.3e-7,"MEAN_MOTION_DDOT":0},{"OBJECT_NAME":"HULIANWANG DIGUI-72","OBJECT_ID":"2025-178E","EPOCH":"2026-03-05T07:07:46.104960","MEAN_MOTION":13.24419972,"ECCENTRICITY":0.00020204,"INCLINATION":86.4942,"RA_OF_ASC_NODE":48.5546,"ARG_OF_PERICENTER":81.9795,"MEAN_ANOMALY":278.1568,"EPHEMERIS_TYPE":0,"CLASSIFICATION_TYPE":"U","NORAD_CAT_ID":65232,"ELEMENT_SET_NO":999,"REV_AT_EPOCH":2656,"BSTAR":4.2895705e-5,"MEAN_MOTION_DOT":3.3e-7,"MEAN_MOTION_DDOT":0},{"OBJECT_NAME":"HULIANWANG DIGUI-73","OBJECT_ID":"2025-187A","EPOCH":"2026-03-05T05:44:28.037760","MEAN_MOTION":13.29342437,"ECCENTRICITY":0.00010412,"INCLINATION":50.0037,"RA_OF_ASC_NODE":218.6818,"ARG_OF_PERICENTER":138.6931,"MEAN_ANOMALY":221.402,"EPHEMERIS_TYPE":0,"CLASSIFICATION_TYPE":"U","NORAD_CAT_ID":65305,"ELEMENT_SET_NO":999,"REV_AT_EPOCH":2587,"BSTAR":4.6894233e-5,"MEAN_MOTION_DOT":-1.02e-6,"MEAN_MOTION_DDOT":0},{"OBJECT_NAME":"HULIANWANG DIGUI-74","OBJECT_ID":"2025-187B","EPOCH":"2026-03-05T07:08:38.448672","MEAN_MOTION":13.29342976,"ECCENTRICITY":0.0001041,"INCLINATION":50.008,"RA_OF_ASC_NODE":218.3915,"ARG_OF_PERICENTER":139.2126,"MEAN_ANOMALY":220.8825,"EPHEMERIS_TYPE":0,"CLASSIFICATION_TYPE":"U","NORAD_CAT_ID":65306,"ELEMENT_SET_NO":999,"REV_AT_EPOCH":2588,"BSTAR":5.3805554e-5,"MEAN_MOTION_DOT":-9.9e-7,"MEAN_MOTION_DDOT":0},{"OBJECT_NAME":"HULIANWANG DIGUI-75","OBJECT_ID":"2025-187C","EPOCH":"2026-03-05T06:44:40.333632","MEAN_MOTION":13.29341974,"ECCENTRICITY":0.00010408,"INCLINATION":50.0072,"RA_OF_ASC_NODE":218.293,"ARG_OF_PERICENTER":137.3466,"MEAN_ANOMALY":222.7488,"EPHEMERIS_TYPE":0,"CLASSIFICATION_TYPE":"U","NORAD_CAT_ID":65307,"ELEMENT_SET_NO":999,"REV_AT_EPOCH":2588,"BSTAR":5.2395373e-5,"MEAN_MOTION_DOT":-1.0e-6,"MEAN_MOTION_DDOT":0},{"OBJECT_NAME":"HULIANWANG DIGUI-76","OBJECT_ID":"2025-187D","EPOCH":"2026-03-05T06:20:53.263104","MEAN_MOTION":13.29339269,"ECCENTRICITY":0.00010377,"INCLINATION":49.9996,"RA_OF_ASC_NODE":218.746,"ARG_OF_PERICENTER":135.0282,"MEAN_ANOMALY":225.0675,"EPHEMERIS_TYPE":0,"CLASSIFICATION_TYPE":"U","NORAD_CAT_ID":65308,"ELEMENT_SET_NO":999,"REV_AT_EPOCH":2587,"BSTAR":6.00368e-5,"MEAN_MOTION_DOT":-9.6e-7,"MEAN_MOTION_DDOT":0},{"OBJECT_NAME":"HULIANWANG DIGUI-77","OBJECT_ID":"2025-187E","EPOCH":"2026-03-05T06:08:38.827680","MEAN_MOTION":13.2934117,"ECCENTRICITY":0.00010714,"INCLINATION":50.003,"RA_OF_ASC_NODE":218.7558,"ARG_OF_PERICENTER":135.8766,"MEAN_ANOMALY":224.2192,"EPHEMERIS_TYPE":0,"CLASSIFICATION_TYPE":"U","NORAD_CAT_ID":65309,"ELEMENT_SET_NO":999,"REV_AT_EPOCH":2587,"BSTAR":5.6136302e-5,"MEAN_MOTION_DOT":-9.8e-7,"MEAN_MOTION_DDOT":0},{"OBJECT_NAME":"HULIANWANG DIGUI-78","OBJECT_ID":"2025-187F","EPOCH":"2026-03-05T06:56:45.453408","MEAN_MOTION":13.29341675,"ECCENTRICITY":0.00010222,"INCLINATION":50.0096,"RA_OF_ASC_NODE":218.3746,"ARG_OF_PERICENTER":139.1233,"MEAN_ANOMALY":220.9716,"EPHEMERIS_TYPE":0,"CLASSIFICATION_TYPE":"U","NORAD_CAT_ID":65310,"ELEMENT_SET_NO":999,"REV_AT_EPOCH":2588,"BSTAR":4.6773838e-5,"MEAN_MOTION_DOT":-1.02e-6,"MEAN_MOTION_DDOT":0},{"OBJECT_NAME":"HULIANWANG DIGUI-79","OBJECT_ID":"2025-187G","EPOCH":"2026-03-05T06:32:28.707072","MEAN_MOTION":13.29343089,"ECCENTRICITY":0.0001033,"INCLINATION":50.0025,"RA_OF_ASC_NODE":218.8337,"ARG_OF_PERICENTER":135.7531,"MEAN_ANOMALY":224.3424,"EPHEMERIS_TYPE":0,"CLASSIFICATION_TYPE":"U","NORAD_CAT_ID":65311,"ELEMENT_SET_NO":999,"REV_AT_EPOCH":2587,"BSTAR":4.9965023e-5,"MEAN_MOTION_DOT":-1.01e-6,"MEAN_MOTION_DDOT":0},{"OBJECT_NAME":"HULIANWANG DIGUI-80","OBJECT_ID":"2025-187H","EPOCH":"2026-03-05T05:56:34.502784","MEAN_MOTION":13.2934125,"ECCENTRICITY":0.00010567,"INCLINATION":50.0016,"RA_OF_ASC_NODE":218.6907,"ARG_OF_PERICENTER":135.6292,"MEAN_ANOMALY":224.4665,"EPHEMERIS_TYPE":0,"CLASSIFICATION_TYPE":"U","NORAD_CAT_ID":65312,"ELEMENT_SET_NO":999,"REV_AT_EPOCH":2587,"BSTAR":7.2172417e-5,"MEAN_MOTION_DOT":-9.1e-7,"MEAN_MOTION_DDOT":0}]
