HULIANWANG DIGUI-65     
1 65171U 25174H   26064.29694559  .00000048  00000+0  77707-4 0  9999
2 65171  86.4844 287.0016 0001227  87.9474 272.1801 13.24422291 27034
HULIANWANG DIGUI-66     
1 65172U 25174J   26064.28941584  .00000053  00000+0  88648-4 0  9994
2 65172  86.4879 287.0703 0001268  90.1334 269.9946 13.24421953 27030
HULIANWANG DIGUI-67     
1 65173U 25174K   26064.30455658  .00000058  00000+0  10034-3 0  9998
2 65173  86.4891 287.0988 0001261  88.4825 271.6453 13.24421561 27003
HULIANWANG DIGUI-68     
1 65228U 25178A   26064.25153350  .00000021  00000+0  13892-4 0  9997
2 65228  86.4941  48.5940 0002028  80.0076 280.1287 13.24423836 26552
HULIANWANG DIGUI-69     
1 65229U 25178B   26064.24428891  .00000027  00000+0  28108-4 0  9994
2 65229  86.4961  48.6313 0001962  81.3451 278.7905 13.24417711 26552
HULIANWANG DIGUI-70     
1 65230U 25178C   26064.23669048  .00000020  00000+0  13460-4 0  9994
2 65230  86.4900  48.5028 0002070  79.9582 280.1786 13.24418629 26551
HULIANWANG DIGUI-71     
1 65231U 25178D   26064.30465858  .00000033  00000+0  42011-4 0  9994
2 65231  86.4959  48.5940 0002011  81.1344 279.0018 13.24419539 26562
HULIANWANG DIGUI-72     
1 65232U 25178E   26064.29706140  .00000033  00000+0  42896-4 0  9996
2 65232  86.4942  48.5546 0002020  81.9795 278.1568 13.24419972 26566
HULIANWANG DIGUI-73     
1 65305U 25187A   26064.23921340 -.00000102  00000+0  46894-4 0  9992
2 65305  50.0037 218.6818 0001041 138.6931 221.4020 13.29342437 25878
HULIANWANG DIGUI-74     
1 65306U 25187B   26064.29766723 -.00000099  00000+0  53806-4 0  9997
2 65306  50.0080 218.3915 0001041 139.2126 220.8825 13.29342976 25880
HULIANWANG DIGUI-75     
1 65307U 25187C   26064.28102238 -.00000100  00000+0  52395-4 0  9997
2 65307  50.0072 218.2930 0001040 137.3466 222.7488 13.29341974 25886
HULIANWANG DIGUI-76     
1 65308U 25187D   26064.26450536 -.00000096  00000+0  60037-4 0  9999
2 65308  49.9996 218.7460 0001037 135.0282 225.0675 13.29339269 25876
HULIANWANG DIGUI-77     
1 65309U 25187E   26064.25600495 -.00000098  00000+0  56136-4 0  9997
2 65309  50.0030 218.7558 0001071 135.8766 224.2192 13.29341170 25879
HULIANWANG DIGUI-78     
1 65310U 25187F   26064.28941497 -.00000102  00000+0  46774-4 0  9995
2 65310  50.0096 218.3746 0001022 139.1233 220.9716 13.29341675 25886
HULIANWANG DIGUI-79     
1 65311U 25187G   26064.27255448 -.00000101  00000+0  49965-4 0  9993
2 65311  50.0025 218.8337 0001033 135.7531 224.3424 13.29343089 25879
HULIANWANG DIGUI-80     
1 65312U 25187H   26064.24762156 -.00000091  00000+0  72172-4 0  9994
2 65312  50.0016 218.6907 0001056 135.6292 224.4665 13.29341250 25875
